LUCH-5V                 
1 39727U 14023A   26094.98775242 -.00000266  00000+0  00000+0 0  9996
2 39727   4.9540  70.4607 0002893 320.3362 252.8216  1.00270325 43628
NAVSTAR 70 (USA 251)    
1 39741U 14026A   26094.17145429 -.00000090  00000+0  00000+0 0  9999
2 39741  56.5319 334.4006 0039371 326.0604  33.7376  2.00566566 87054
COSMOS 2500 [GLONASS-M] 
1 40001U 14032A   26092.95821382 -.00000044  00000+0  00000+0 0  9999
2 40001  65.2756 316.2469 0005137 188.3777 171.6663  2.13105929 91851
NAVSTAR 71 (USA 256)    
1 40105U 14045A   26094.75949234  .00000001  00000+0  00000+0 0  9997
2 40105  55.3044  91.3884 0031400 119.7821 240.5387  2.00553665 84602
GSAT0201 (GALILEO 5)    
1 40128U 14050A   26094.57587155 -.00000043  00000+0  00000+0 0  9995
2 40128  48.9567 276.4486 1662760 176.5217 184.7885  1.85520165 76951
GSAT0202 (GALILEO 6)    
1 40129U 14050B   26091.59776485 -.00000055  00000+0  00000+0 0  9994
2 40129  48.9773 275.6550 1663302 177.1412 183.9310  1.85520784 79067
IRNSS-1C                
1 40269U 14061A   26095.02942029 -.00000159  00000+0  00000+0 0  9997
2 40269   6.3305  90.3322 0020848 356.3073 200.3264  1.00273058 41950
NAVSTAR 72 (USA 258)    
1 40294U 14068A   26095.13374774 -.00000083  00000+0  00000+0 0  9996
2 40294  56.9408  33.7696 0064296  68.3855 292.2862  2.00571825 83742
COSMOS 2501 [GLONASS-K] 
1 40315U 14075A   26084.30325579  .00000001  00000+0  00000+0 0  9993
2 40315  63.6158 193.2737 0021182 207.3153 152.5805  2.13101287 88064
NAVSTAR 73 (USA 260)    
1 40534U 15013A   26094.26958473  .00000003  00000+0  00000+0 0  9992
2 40534  53.1792 207.2341 0108818  39.9307 320.8601  2.00555779 80346
GSAT0203 (GALILEO 7)    
1 40544U 15017A   26094.30331323 -.00000095  00000+0  00000+0 0  9993
2 40544  56.8108 343.6116 0004485 297.4041  62.5970  1.70475988 67943
GSAT0204 (GALILEO 8)    
1 40545U 15017B   26093.97240100 -.00000096  00000+0  00000+0 0  9999
2 40545  56.8167 343.6389 0003117 291.5044  68.5090  1.70475693 30986
BEIDOU-3S IGSO-1S       
1 40549U 15019A   26082.29086919 -.00000163  00000+0  00000+0 0  9999
2 40549  49.3559 296.4949 0036261 190.1236 255.1180  1.00268843 40213
NAVSTAR 74 (USA 262)    
1 40730U 15033A   26094.92809061 -.00000019  00000+0  00000+0 0  9991
2 40730  54.0412 270.1047 0114942  29.5880 331.0290  2.00560155 78520
BEIDOU-3S M2S           
1 40748U 15037A   26093.68736214 -.00000064  00000+0  00000+0 0  9995
2 40748  54.9362 304.6107 0007866 276.2364  83.6984  1.86232009 72730
BEIDOU-3S M1S           
1 40749U 15037B   26093.90388687 -.00000063  00000+0  00000+0 0  9997
2 40749  54.9325 304.5916 0004693  43.1589 316.9018  1.86254958 72740
GSAT0205 (GALILEO 9)    
1 40889U 15045A   26092.93447196 -.00000016  00000+0  00000+0 0  9992
2 40889  54.9709 223.7776 0004084 270.5301  89.3690  1.67410870 65700
